start=new Date('2022-09-05T00:00:00.000Z').valueOf();
sats=[{"ECCENTRICITY":"0.00015840","EPOCH":"2022-09-04T20:00:01.000224","INCLINATION":"53.2176","LAUNCH_DATE":"2022-02-25","PERIOD":"95.435","SITE":"AFWTR","ARG_OF_PERICENTER":"53.8568","RA_OF_ASC_NODE":"343.6104","MEAN_ANOMALY":"322.4813","TIME_SYSTEM":"UTC","RCS_SIZE":"MEDIUM","MEAN_ELEMENT_THEORY":"SGP4","PERIAPSIS":"538.539","CLASSIFICATION_TYPE":"U","SEMIMAJOR_AXIS":"6917.769","REF_FRAME":"TEME","ELEMENT_SET_NO":"999","MEAN_MOTION":"15.08876351","MEAN_MOTION_DOT":"-0.00051026","MEAN_MOTION_DDOT":"0.0000000000000","BSTAR":"-0.00320760000000","TLE_LINE2":"2 51790  53.2176 343.6104 0001584  53.8568 322.4813 15.08876351  1303","REV_AT_EPOCH":"130","EPHEMERIS_TYPE":"0","OBJECT_TYPE":"PAYLOAD","TLE_LINE1":"1 51790U 22017Y   22247.83334491 -.00051026  00000-0 -32076-2 0  9992","CENTER_NAME":"EARTH","OBJECT_NAME":"STARLINK-3631","NORAD_CAT_ID":"51790","DECAY_DATE":null,"COUNTRY_CODE":"US","APOAPSIS":"540.730","OBJECT_ID":"2022-017Y","FILE":"3558394","GP_ID":"211753951"},{"RCS_SIZE":"LARGE","REF_FRAME":"TEME","SEMIMAJOR_AXIS":"6917.748","CLASSIFICATION_TYPE":"U","PERIAPSIS":"538.499","MEAN_ELEMENT_THEORY":"SGP4","MEAN_MOTION":"15.08883191","ELEMENT_SET_NO":"999","MEAN_MOTION_DOT":"-0.00064575","EPHEMERIS_TYPE":"0","REV_AT_EPOCH":"130","TLE_LINE2":"2 51791  53.2174 343.5929 0001611  48.6429 267.7137 15.08883191  1305","BSTAR":"-0.00407110000000","MEAN_MOTION_DDOT":"0.0000000000000","TLE_LINE1":"1 51791U 22017Z   22247.83334491 -.00064575  00000-0 -40711-2 0  9991","OBJECT_TYPE":"PAYLOAD","OBJECT_NAME":"STARLINK-3602","CENTER_NAME":"EARTH","DECAY_DATE":null,"NORAD_CAT_ID":"51791","OBJECT_ID":"2022-017Z","APOAPSIS":"540.728","COUNTRY_CODE":"US","GP_ID":"211752711","FILE":"3558394","INCLINATION":"53.2174","ECCENTRICITY":"0.00016110","EPOCH":"2022-09-04T20:00:01.000224","LAUNCH_DATE":"2022-02-25","SITE":"AFWTR","PERIOD":"95.435","ARG_OF_PERICENTER":"48.6429","RA_OF_ASC_NODE":"343.5929","MEAN_ANOMALY":"267.7137","TIME_SYSTEM":"UTC"},{"RA_OF_ASC_NODE":"343.6107","MEAN_ANOMALY":"7.5325","TIME_SYSTEM":"UTC","ARG_OF_PERICENTER":"48.8386","LAUNCH_DATE":"2022-02-25","SITE":"AFWTR","PERIOD":"95.436","EPOCH":"2022-09-04T20:00:01.000224","ECCENTRICITY":"0.00014940","INCLINATION":"53.2171","OBJECT_ID":"2022-017AA","COUNTRY_CODE":"US","APOAPSIS":"540.701","FILE":"3558394","GP_ID":"211752959","OBJECT_TYPE":"PAYLOAD","TLE_LINE1":"1 51792U 22017AA  22247.83334491 -.00038528  00000-0 -24140-2 0  9999","CENTER_NAME":"EARTH","OBJECT_NAME":"STARLINK-3626","DECAY_DATE":null,"NORAD_CAT_ID":"51792","ELEMENT_SET_NO":"999","MEAN_MOTION":"15.08865330","MEAN_MOTION_DOT":"-0.00038528","EPHEMERIS_TYPE":"0","BSTAR":"-0.00241400000000","MEAN_MOTION_DDOT":"0.0000000000000","TLE_LINE2":"2 51792  53.2171 343.6107 0001494  48.8386   7.5325 15.08865330  1309","REV_AT_EPOCH":"130","RCS_SIZE":"LARGE","SEMIMAJOR_AXIS":"6917.803","REF_FRAME":"TEME","MEAN_ELEMENT_THEORY":"SGP4","PERIAPSIS":"538.634","CLASSIFICATION_TYPE":"U"},{"REV_AT_EPOCH":"130","TLE_LINE2":"2 51793  53.2186 343.6011 0001519  50.5422 285.7848 15.08889512  1307","MEAN_MOTION_DDOT":"0.0000000000000","BSTAR":"-0.00402090000000","EPHEMERIS_TYPE":"0","MEAN_MOTION_DOT":"-0.00063800","MEAN_MOTION":"15.08889512","ELEMENT_SET_NO":"999","CLASSIFICATION_TYPE":"U","PERIAPSIS":"538.543","MEAN_ELEMENT_THEORY":"SGP4","REF_FRAME":"TEME","SEMIMAJOR_AXIS":"6917.729","RCS_SIZE":"LARGE","GP_ID":"211753196","FILE":"3558394","APOAPSIS":"540.645","COUNTRY_CODE":"US","OBJECT_ID":"2022-017AB","NORAD_CAT_ID":"51793","DECAY_DATE":null,"OBJECT_TYPE":"PAYLOAD","TLE_LINE1":"1 51793U 22017AB  22247.83334491 -.00063800  00000-0 -40209-2 0  9995","OBJECT_NAME":"STARLINK-3633","CENTER_NAME":"EARTH","PERIOD":"95.434","SITE":"AFWTR","LAUNCH_DATE":"2022-02-25","INCLINATION":"53.2186","ECCENTRICITY":"0.00015190","EPOCH":"2022-09-04T20:00:01.000224","TIME_SYSTEM":"UTC","MEAN_ANOMALY":"285.7848","RA_OF_ASC_NODE":"343.6011","ARG_OF_PERICENTER":"50.5422"},{"ARG_OF_PERICENTER":"55.5932","RA_OF_ASC_NODE":"343.6115","MEAN_ANOMALY":"40.7595","TIME_SYSTEM":"UTC","INCLINATION":"53.2161","ECCENTRICITY":"0.00015400","EPOCH":"2022-09-04T20:00:01.000224","LAUNCH_DATE":"2022-02-25","SITE":"AFWTR","PERIOD":"95.436","TLE_LINE1":"1 51794U 22017AC  22247.83334491 -.00051214  00000-0 -32203-2 0  9997","OBJECT_TYPE":"PAYLOAD","CENTER_NAME":"EARTH","OBJECT_NAME":"STARLINK-3573","DECAY_DATE":null,"NORAD_CAT_ID":"51794","OBJECT_ID":"2022-017AC","APOAPSIS":"540.726","COUNTRY_CODE":"US","GP_ID":"211753451","FILE":"3558394","RCS_SIZE":"LARGE","REF_FRAME":"TEME","SEMIMAJOR_AXIS":"6917.796","PERIAPSIS":"538.595","CLASSIFICATION_TYPE":"U","MEAN_ELEMENT_THEORY":"SGP4","MEAN_MOTION":"15.08867763","ELEMENT_SET_NO":"999","MEAN_MOTION_DOT":"-0.00051214","EPHEMERIS_TYPE":"0","REV_AT_EPOCH":"130","TLE_LINE2":"2 51794  53.2161 343.6115 0001540  55.5932  40.7595 15.08867763  1303","MEAN_MOTION_DDOT":"0.0000000000000","BSTAR":"-0.00322030000000"},{"OBJECT_ID":"2022-017AD","COUNTRY_CODE":"US","APOAPSIS":"540.696","FILE":"3558394","GP_ID":"211752211","CENTER_NAME":"EARTH","TLE_LINE1":"1 51795U 22017AD  22247.83334491 -.00037190  00000-0 -23291-2 0  9992","OBJECT_TYPE":"PAYLOAD","OBJECT_NAME":"STARLINK-3586","DECAY_DATE":null,"NORAD_CAT_ID":"51795","MEAN_MOTION":"15.08865277","MEAN_MOTION_DOT":"-0.00037190","ELEMENT_SET_NO":"999","EPHEMERIS_TYPE":"0","BSTAR":"-0.00232910000000","MEAN_MOTION_DDOT":"0.0000000000000","TLE_LINE2":"2 51795  53.2162 343.6124 0001486  51.9568  24.4052 15.08865277  1304","REV_AT_EPOCH":"130","RCS_SIZE":"LARGE","SEMIMAJOR_AXIS":"6917.803","REF_FRAME":"TEME","MEAN_ELEMENT_THEORY":"SGP4","CLASSIFICATION_TYPE":"U","PERIAPSIS":"538.640","RA_OF_ASC_NODE":"343.6124","MEAN_ANOMALY":"24.4052","TIME_SYSTEM":"UTC","ARG_OF_PERICENTER":"51.9568","LAUNCH_DATE":"2022-02-25","SITE":"AFWTR","PERIOD":"95.436","ECCENTRICITY":"0.00014860","EPOCH":"2022-09-04T20:00:01.000224","INCLINATION":"53.2162"},{"SEMIMAJOR_AXIS":"6917.797","REF_FRAME":"TEME","MEAN_ELEMENT_THEORY":"SGP4","PERIAPSIS":"538.492","CLASSIFICATION_TYPE":"U","RCS_SIZE":"LARGE","EPHEMERIS_TYPE":"0","MEAN_MOTION_DDOT":"0.0000000000000","BSTAR":"-0.00233620000000","TLE_LINE2":"2 51796  53.2167 343.5961 0001692  44.8408 111.4903 15.08867149  1303","REV_AT_EPOCH":"130","ELEMENT_SET_NO":"999","MEAN_MOTION":"15.08867149","MEAN_MOTION_DOT":"-0.00037304","DECAY_DATE":null,"NORAD_CAT_ID":"51796","TLE_LINE1":"1 51796U 22017AE  22247.83334491 -.00037304  00000-0 -23362-2 0  9999","OBJECT_TYPE":"PAYLOAD","OBJECT_NAME":"STARLINK-3630","CENTER_NAME":"EARTH","FILE":"3558394","GP_ID":"211752459","OBJECT_ID":"2022-017AE","COUNTRY_CODE":"US","APOAPSIS":"540.833","ECCENTRICITY":"0.00016920","EPOCH":"2022-09-04T20:00:01.000224","INCLINATION":"53.2167","SITE":"AFWTR","PERIOD":"95.436","LAUNCH_DATE":"2022-02-25","ARG_OF_PERICENTER":"44.8408","TIME_SYSTEM":"UTC","MEAN_ANOMALY":"111.4903","RA_OF_ASC_NODE":"343.5961"},{"GP_ID":"211753697","FILE":"3558394","OBJECT_ID":"2022-017AF","APOAPSIS":"540.821","COUNTRY_CODE":"US","DECAY_DATE":null,"NORAD_CAT_ID":"51797","OBJECT_TYPE":"PAYLOAD","TLE_LINE1":"1 51797U 22017AF  22247.83334491 -.00044388  00000-0 -27860-2 0  9997","OBJECT_NAME":"STARLINK-3627","CENTER_NAME":"EARTH","EPHEMERIS_TYPE":"0","TLE_LINE2":"2 51797  53.2166 343.6123 0001676  44.2381 352.1206 15.08867400  1300","REV_AT_EPOCH":"130","MEAN_MOTION_DDOT":"0.0000000000000","BSTAR":"-0.00278600000000","MEAN_MOTION":"15.08867400","ELEMENT_SET_NO":"999","MEAN_MOTION_DOT":"-0.00044388","REF_FRAME":"TEME","SEMIMAJOR_AXIS":"6917.797","CLASSIFICATION_TYPE":"U","PERIAPSIS":"538.502","MEAN_ELEMENT_THEORY":"SGP4","RCS_SIZE":"LARGE","MEAN_ANOMALY":"352.1206","TIME_SYSTEM":"UTC","RA_OF_ASC_NODE":"343.6123","ARG_OF_PERICENTER":"44.2381","SITE":"AFWTR","PERIOD":"95.436","LAUNCH_DATE":"2022-02-25","INCLINATION":"53.2166","EPOCH":"2022-09-04T20:00:01.000224","ECCENTRICITY":"0.00016760"},{"CLASSIFICATION_TYPE":"U","PERIAPSIS":"538.540","MEAN_ELEMENT_THEORY":"SGP4","REF_FRAME":"TEME","SEMIMAJOR_AXIS":"6917.820","RCS_SIZE":"LARGE","REV_AT_EPOCH":"130","TLE_LINE2":"2 51798  53.2159 343.5888 0001654  50.7268 125.6326 15.08859899  1301","BSTAR":"-0.00197990000000","MEAN_MOTION_DDOT":"0.0000000000000","EPHEMERIS_TYPE":"0","MEAN_MOTION_DOT":"-0.00031677","ELEMENT_SET_NO":"999","MEAN_MOTION":"15.08859899","NORAD_CAT_ID":"51798","DECAY_DATE":null,"TLE_LINE1":"1 51798U 22017AG  22247.83334491 -.00031677  00000-0 -19799-2 0  9997","CENTER_NAME":"EARTH","OBJECT_TYPE":"PAYLOAD","OBJECT_NAME":"STARLINK-3634","GP_ID":"211753952","FILE":"3558394","APOAPSIS":"540.829","COUNTRY_CODE":"US","OBJECT_ID":"2022-017AG","INCLINATION":"53.2159","ECCENTRICITY":"0.00016540","EPOCH":"2022-09-04T20:00:01.000224","PERIOD":"95.436","SITE":"AFWTR","LAUNCH_DATE":"2022-02-25","ARG_OF_PERICENTER":"50.7268","TIME_SYSTEM":"UTC","MEAN_ANOMALY":"125.6326","RA_OF_ASC_NODE":"343.5888"},{"RA_OF_ASC_NODE":"343.6111","TIME_SYSTEM":"UTC","MEAN_ANOMALY":"70.7906","ARG_OF_PERICENTER":"45.5638","LAUNCH_DATE":"2022-02-25","SITE":"AFWTR","PERIOD":"95.436","INCLINATION":"53.2171","EPOCH":"2022-09-04T20:00:01.000224","ECCENTRICITY":"0.00015920","OBJECT_ID":"2022-017AH","APOAPSIS":"540.779","COUNTRY_CODE":"US","GP_ID":"211752712","FILE":"3558394","TLE_LINE1":"1 51799U 22017AH  22247.83334491 -.00034165  00000-0 -21374-2 0  9995","CENTER_NAME":"EARTH","OBJECT_TYPE":"PAYLOAD","OBJECT_NAME":"STARLINK-3637","DECAY_DATE":null,"NORAD_CAT_ID":"51799","ELEMENT_SET_NO":"999","MEAN_MOTION":"15.08862273","MEAN_MOTION_DOT":"-0.00034165","EPHEMERIS_TYPE":"0","TLE_LINE2":"2 51799  53.2171 343.6111 0001592  45.5638  70.7906 15.08862273  1304","REV_AT_EPOCH":"130","BSTAR":"-0.00213740000000","MEAN_MOTION_DDOT":"0.0000000000000","RCS_SIZE":"LARGE","REF_FRAME":"TEME","SEMIMAJOR_AXIS":"6917.812","PERIAPSIS":"538.576","CLASSIFICATION_TYPE":"U","MEAN_ELEMENT_THEORY":"SGP4"}];
